[{"OBJECT_NAME":"STARLINK-33671","OBJECT_ID":"2025-057P","EPOCH":"2026-03-09T21:46:22.643328","MEAN_MOTION":15.275876,"ECCENTRICITY":8.176e-5,"INCLINATION":42.9992,"RA_OF_ASC_NODE":18.9869,"ARG_OF_PERICENTER":116.2028,"MEAN_ANOMALY":243.8908,"EPHEMERIS_TYPE":0,"CLASSIFICATION_TYPE":"U","NORAD_CAT_ID":63320,"ELEMENT_SET_NO":999,"REV_AT_EPOCH":5593,"BSTAR":0.00097814194,"MEAN_MOTION_DOT":0.00026758,"MEAN_MOTION_DDOT":0},{"OBJECT_NAME":"GEOSCAN 4 (RS92S4)","OBJECT_ID":"2025-155S","EPOCH":"2026-03-09T21:50:07.724832","MEAN_MOTION":15.30369837,"ECCENTRICITY":0.00070968,"INCLINATION":97.4465,"RA_OF_ASC_NODE":37.7626,"ARG_OF_PERICENTER":154.7045,"MEAN_ANOMALY":205.4544,"EPHEMERIS_TYPE":0,"CLASSIFICATION_TYPE":"U","NORAD_CAT_ID":64892,"ELEMENT_SET_NO":999,"REV_AT_EPOCH":6562,"BSTAR":0.00068609503,"MEAN_MOTION_DOT":0.00020121,"MEAN_MOTION_DDOT":0}]
